{
  "norad_id": 68825,
  "name": "STARLINK-37015",
  "history": [
    {
      "epoch": "2026-04-27T12:52:16.519584Z",
      "apogee_km": 261.84284940500766,
      "perigee_km": 260.4407665063445,
      "latitude_deg": 3.659055069719349e-05,
      "longitude_deg": -85.90174199048441,
      "height_km": 263.70455246433903,
      "semi_major_axis_km": 6639.278807955676,
      "eccentricity": 0.00010559,
      "inclination_deg": 97.2854,
      "raan_deg": 322.6918,
      "arg_perigee_deg": 337.0621,
      "mean_anomaly_deg": 23.0613,
      "mean_motion_rev_day": 16.04801797
    },
    {
      "epoch": "2026-04-29T20:00:01.999008Z",
      "apogee_km": 288.26587386486244,
      "perigee_km": 286.3089052640862,
      "latitude_deg": -78.78803573614336,
      "longitude_deg": -52.48227506464933,
      "height_km": 316.1557275410385,
      "semi_major_axis_km": 6665.424389564474,
      "eccentricity": 0.0001468,
      "inclination_deg": 97.2831,
      "raan_deg": 325.1895,
      "arg_perigee_deg": 98.6305,
      "mean_anomaly_deg": 162.708,
      "mean_motion_rev_day": 15.95368646
    },
    {
      "epoch": "2026-04-30T14:00:01.999872Z",
      "apogee_km": 296.8042681217348,
      "perigee_km": 294.739093819494,
      "latitude_deg": -61.12992960466204,
      "longitude_deg": 64.13732431745903,
      "height_km": 320.3301012958214,
      "semi_major_axis_km": 6673.908680970614,
      "eccentricity": 0.00015472,
      "inclination_deg": 97.2827,
      "raan_deg": 325.9991,
      "arg_perigee_deg": 81.4849,
      "mean_anomaly_deg": 160.2703,
      "mean_motion_rev_day": 15.92327414
    },
    {
      "epoch": "2026-05-02T10:00:03.000096Z",
      "apogee_km": 318.60722051744506,
      "perigee_km": 316.5824312133045,
      "latitude_deg": -78.9650980670916,
      "longitude_deg": -1.7194007647754301,
      "height_km": 346.5439680331432,
      "semi_major_axis_km": 6695.731825865375,
      "eccentricity": 0.0001512,
      "inclination_deg": 97.2832,
      "raan_deg": 327.9593,
      "arg_perigee_deg": 86.179,
      "mean_anomaly_deg": 192.2447,
      "mean_motion_rev_day": 15.84549042
    },
    {
      "epoch": "2026-05-03T20:00:01.999008Z",
      "apogee_km": 328.4551051252456,
      "perigee_km": 326.09882265833403,
      "latitude_deg": 60.02198427388384,
      "longitude_deg": 154.99137862515005,
      "height_km": 336.6020027852742,
      "semi_major_axis_km": 6705.4139638917895,
      "eccentricity": 0.0001757,
      "inclination_deg": 97.2834,
      "raan_deg": 329.4589,
      "arg_perigee_deg": 97.6964,
      "mean_anomaly_deg": 323.0494,
      "mean_motion_rev_day": 15.81118318
    },
    {
      "epoch": "2026-05-04T20:00:01.999008Z",
      "apogee_km": 340.1649869120838,
      "perigee_km": 337.8757796758573,
      "latitude_deg": -18.408349523473206,
      "longitude_deg": 170.21362803307986,
      "height_km": 346.7556668539058,
      "semi_major_axis_km": 6717.15738329397,
      "eccentricity": 0.0001704,
      "inclination_deg": 97.2839,
      "raan_deg": 330.5146,
      "arg_perigee_deg": 93.2308,
      "mean_anomaly_deg": 248.4579,
      "mean_motion_rev_day": 15.76973793
    },
    {
      "epoch": "2026-05-05T20:00:03.000384Z",
      "apogee_km": 345.15743547674083,
      "perigee_km": 343.13940539352643,
      "latitude_deg": -68.91245169628826,
      "longitude_deg": -31.396211124919247,
      "height_km": 370.983828150558,
      "semi_major_axis_km": 6722.285420435133,
      "eccentricity": 0.0001501,
      "inclination_deg": 97.2841,
      "raan_deg": 331.5643,
      "arg_perigee_deg": 92.1826,
      "mean_anomaly_deg": 157.7908,
      "mean_motion_rev_day": 15.75169666
    },
    {
      "epoch": "2026-05-06T20:00:01.999008Z",
      "apogee_km": 344.9369897740362,
      "perigee_km": 342.7644433440437,
      "latitude_deg": 23.163995276204968,
      "longitude_deg": -8.96482951115062,
      "height_km": 346.14679986720984,
      "semi_major_axis_km": 6721.98771655904,
      "eccentricity": 0.0001616,
      "inclination_deg": 97.2849,
      "raan_deg": 332.6141,
      "arg_perigee_deg": 108.9433,
      "mean_anomaly_deg": 47.7008,
      "mean_motion_rev_day": 15.75274309
    },
    {
      "epoch": "2026-05-07T20:00:01.999008Z",
      "apogee_km": 345.1968936858211,
      "perigee_km": 342.98393642078554,
      "latitude_deg": 62.73796963739812,
      "longitude_deg": 153.70002482088233,
      "height_km": 354.03104167087304,
      "semi_major_axis_km": 6722.227415053303,
      "eccentricity": 0.0001646,
      "inclination_deg": 97.2846,
      "raan_deg": 333.6632,
      "arg_perigee_deg": 101.1039,
      "mean_anomaly_deg": 322.4622,
      "mean_motion_rev_day": 15.75190054
    },
    {
      "epoch": "2026-05-08T20:00:01.999008Z",
      "apogee_km": 345.05990857777397,
      "perigee_km": 343.25833321737355,
      "latitude_deg": -29.59332662309335,
      "longitude_deg": 172.1841766487836,
      "height_km": 355.76653952348573,
      "semi_major_axis_km": 6722.296120897573,
      "eccentricity": 0.000134,
      "inclination_deg": 97.2843,
      "raan_deg": 334.7125,
      "arg_perigee_deg": 84.4881,
      "mean_anomaly_deg": 245.9409,
      "mean_motion_rev_day": 15.75165905
    },
    {
      "epoch": "2026-05-09T18:59:47.524992Z",
      "apogee_km": 344.56321154727357,
      "perigee_km": 343.2725770075722,
      "latitude_deg": 3.465873670234126e-06,
      "longitude_deg": -176.8353477627347,
      "height_km": 346.7684936682453,
      "semi_major_axis_km": 6722.054894277422,
      "eccentricity": 9.6e-05,
      "inclination_deg": 97.2844,
      "raan_deg": 335.7167,
      "arg_perigee_deg": 60.6369,
      "mean_anomaly_deg": 299.4992,
      "mean_motion_rev_day": 15.75250695
    },
    {
      "epoch": "2026-05-10T19:23:28.116384Z",
      "apogee_km": 344.7637172358727,
      "perigee_km": 343.1652015088348,
      "latitude_deg": -3.13511857930175e-05,
      "longitude_deg": 177.31027365423498,
      "height_km": 346.80292948222325,
      "semi_major_axis_km": 6722.101459372354,
      "eccentricity": 0.0001189,
      "inclination_deg": 97.2849,
      "raan_deg": 336.7833,
      "arg_perigee_deg": 65.7616,
      "mean_anomaly_deg": 294.3773,
      "mean_motion_rev_day": 15.75234327
    }
  ]
}